{
    "links": {
        "self": "http://www.neowsapp.com/rest/v1/neo/3831181?api_key=iIulBulltgU6a56xZRHN4H3l9WmuAYTsLGpBGhQ2"
    },
    "id": "3831181",
    "neo_reference_id": "3831181",
    "name": "(2018 TQ)",
    "designation": "2018 TQ",
    "nasa_jpl_url": "http://ssd.jpl.nasa.gov/sbdb.cgi?sstr=3831181",
    "absolute_magnitude_h": 21.6,
    "estimated_diameter": {
        "kilometers": {
            "estimated_diameter_min": 0.1272198785,
            "estimated_diameter_max": 0.2844722965
        },
        "meters": {
            "estimated_diameter_min": 127.2198785394,
            "estimated_diameter_max": 284.4722965033
        },
        "miles": {
            "estimated_diameter_min": 0.0790507431,
            "estimated_diameter_max": 0.1767628354
        },
        "feet": {
            "estimated_diameter_min": 417.3880663071,
            "estimated_diameter_max": 933.3080892598
        }
    },
    "is_potentially_hazardous_asteroid": false,
    "close_approach_data": [
        {
            "close_approach_date": "2018-09-05",
            "close_approach_date_full": "2018-Sep-05 13:41",
            "epoch_date_close_approach": 1536154860000,
            "relative_velocity": {
                "kilometers_per_second": "5.6786662244",
                "kilometers_per_hour": "20443.198407795",
                "miles_per_hour": "12702.6084773324"
            },
            "miss_distance": {
                "astronomical": "0.3115248739",
                "lunar": "121.1831759471",
                "kilometers": "46603457.587458593",
                "miles": "28958045.7424228634"
            },
            "orbiting_body": "Earth"
        },
        {
            "close_approach_date": "2029-10-05",
            "close_approach_date_full": "2029-Oct-05 02:53",
            "epoch_date_close_approach": 1885863180000,
            "relative_velocity": {
                "kilometers_per_second": "5.3939417358",
                "kilometers_per_hour": "19418.1902487305",
                "miles_per_hour": "12065.7082687181"
            },
            "miss_distance": {
                "astronomical": "0.3959045318",
                "lunar": "154.0068628702",
                "kilometers": "59226474.680627266",
                "miles": "36801624.8525216308"
            },
            "orbiting_body": "Earth"
        }
    ],
    "orbital_data": {
        "orbit_id": "6",
        "orbit_determination_date": "2018-11-24 06:38:04",
        "first_observation_date": "2018-10-01",
        "last_observation_date": "2018-11-08",
        "data_arc_in_days": 38,
        "observations_used": 42,
        "orbit_uncertainty": "6",
        "minimum_orbit_intersection": ".258213",
        "jupiter_tisserand_invariant": "3.792",
        "epoch_osculation": "2459000.5",
        "eccentricity": ".3530709609688569",
        "semi_major_axis": "1.9523578404395",
        "inclination": "10.43997291715372",
        "ascending_node_longitude": "354.1378131749111",
        "orbital_period": "996.4088084972359",
        "perihelion_distance": "1.263036981560443",
        "perihelion_argument": "359.7370486937018",
        "aphelion_distance": "2.641678699318556",
        "perihelion_time": "2459386.481910944617",
        "mean_anomaly": "220.5457049806403",
        "mean_motion": ".3612974884705655",
        "equinox": "J2000",
        "orbit_class": {
            "orbit_class_type": "AMO",
            "orbit_class_description": "Near-Earth asteroid orbits similar to that of 1221 Amor",
            "orbit_class_range": "1.017 AU < q (perihelion) < 1.3 AU"
        }
    },
    "is_sentry_object": false
}